OBJECT_NAME,OBJECT_ID,EPOCH,MEAN_MOTION,ECCENTRICITY,INCLINATION,RA_OF_ASC_NODE,ARG_OF_PERICENTER,MEAN_ANOMALY,EPHEMERIS_TYPE,CLASSIFICATION_TYPE,NORAD_CAT_ID,ELEMENT_SET_NO,REV_AT_EPOCH,BSTAR,MEAN_MOTION_DOT,MEAN_MOTION_DDOT
AISTECHSAT 2,2018-099L,2026-06-25T16:08:28.302720,15.15527965,.0003012,97.4292,224.5206,264.4362,95.6527,0,U,43768,999,41356,.35210076E-3,.6609E-4,0
FOX-1CLIFF (AO-95),2018-099N,2026-06-26T17:05:04.607232,15.26902666,.0007136,97.4386,237.9235,319.9595,40.1117,0,U,43770,999,41467,.43041E-3,.11312E-3,0
RANGE-A,2018-099R,2026-06-26T13:36:01.139040,15.13462715,.0008909,97.3964,219.8713,322.1269,37.9335,0,U,43773,999,41391,.24277E-3,.4281E-4,0
SNUSAT-2,2018-099AA,2026-06-26T09:45:42.403392,15.21968787,.0008603,97.4061,230.6488,259.8617,100.1648,0,U,43782,999,41443,.39328E-3,.8914E-4,0
SNUGLITE,2018-099AC,2026-06-26T13:52:50.115648,15.27371411,.0001697,97.3869,231.7662,223.4061,136.7045,0,U,43784,999,41475,.43213E-3,.11514E-3,0
ITASAT,2018-099AE,2026-06-26T16:54:35.731008,15.19167716,.0011181,97.4027,229.0263,324.7706,35.2789,0,U,43786,999,41435,.33E-3,.6883E-4,0
EAGLET-I,2018-099AJ,2026-06-26T13:50:15.000000,15.13003874,.00098023,97.4229,226.9964,319.5109,40.5392,0,U,43790,999,41375,.21367199E-3,.3712E-4,0
ESEO,2018-099AL,2026-06-26T13:25:48.441216,15.04276462,.0010261,97.3975,214.5470,307.1749,52.8540,0,U,43792,999,41321,.98963E-4,.132E-4,0
THEA,2018-099AQ,2026-06-26T17:14:57.465888,15.35322018,.0006352,97.4448,247.5048,241.5381,118.5223,0,U,43796,999,41415,.51393E-3,.17578E-3,0
ASTROCAST 0.1,2018-099AS,2026-06-26T16:30:38.988000,15.50173201,.0005605,97.4379,256.4844,176.1708,183.9587,0,U,43798,999,41590,.65998E-3,.37259E-3,0
JY1SAT (JO-97),2018-099AX,2026-06-26T16:27:58.635648,15.33941851,.000507,97.4134,240.5542,220.1283,139.9586,0,U,43803,999,41508,.50103E-3,.16394E-3,0
SUOMI-100,2018-099AY,2026-06-26T16:46:09.695712,15.28626450,.0008749,97.4187,238.0570,239.4504,120.5873,0,U,43804,999,41487,.44146E-3,.12236E-3,0
CENTAURI-1,2018-099BD,2026-06-26T13:49:49.524960,15.16451035,.0012477,97.4220,229.0942,297.8354,62.1615,0,U,43809,999,41392,.27386E-3,.5271E-4,0
GLOBAL-2,2018-099BG,2026-06-26T13:25:18.011136,15.08725146,.0007592,97.3557,213.6829,116.3440,243.8570,0,U,43812,999,41332,.20376E-3,.3139E-4,0
SEAHAWK-1,2018-099BQ,2026-06-26T09:37:30.352800,15.22948821,.000651,97.3965,229.7465,275.0988,84.9506,0,U,43820,999,41393,.40935E-3,.9551E-4,0
SAUDISAT 5A,2018-102A,2026-06-26T17:24:34.839072,15.28141248,.0011323,97.3069,239.1225,100.1845,260.0672,0,U,43831,999,41713,.21014E-3,.5701E-4,0
SAUDISAT 5B,2018-102C,2026-06-26T17:49:25.758336,15.28393197,.0012042,97.3178,242.2264,102.0222,258.2369,0,U,43833,999,41725,.19551E-3,.5341E-4,0
ISAT,2018-111D,2026-06-26T17:55:00.859008,15.67031987,.0003536,97.5868,113.7138,166.2174,193.9183,0,U,43879,999,41266,.88997E-3,.95453E-3,0
UWE-4,2018-111E,2026-06-26T17:27:19.800000,15.46698886,.0004426,97.5846,106.5606,294.0658,66.0127,0,U,43880,999,41225,.6498E-3,.32472E-3,0
D-STAR ONE (SPARROW),2018-111F,2026-06-26T14:13:55.492032,15.77369932,.0004903,97.6096,119.3456,132.2183,227.9499,0,U,43881,999,41285,.10183E-2,.170388E-2,0
JILIN-1 09,2019-005B,2026-06-26T17:19:52.370688,15.20592566,.0003575,97.4744,272.6032,75.5056,284.6576,0,U,43943,999,41059,.21311E-3,.4601E-4,0
JILIN-1 10,2019-005E,2026-06-26T16:50:26.066112,15.25818258,.0006878,97.4791,276.5061,238.0346,122.0224,0,U,43946,999,41076,.23485E-3,.5935E-4,0
EGYPTSAT-A (MISRSAT-A),2019-008A,2026-06-26T17:25:08.250816,14.72317324,.0001468,98.0194,242.3590,97.4768,262.6606,0,U,44047,999,39464,.91635E-4,.53E-5,0
EMISAT,2019-018A,2026-06-26T18:40:33.415392,14.43641841,.0018139,98.4647,236.5263,185.3844,174.7154,0,U,44078,999,38144,.10964E-3,.329E-5,0
JILIN-1 GAOFEN 3A,2019-032C,2026-06-26T17:32:36.221856,15.32834596,.0005941,44.9760,304.4040,343.0052,17.0633,0,U,44312,999,38930,.34425E-3,.10839E-3,0
WT 1B,2019-032G,2026-06-26T14:50:14.750592,15.27358058,.0010211,44.9711,9.4563,296.4737,63.5098,0,U,44316,999,38852,.41491E-3,.11059E-3,0
PROX-1,2019-036A,2026-06-26T18:18:59.952096,14.90835013,.0005675,23.9958,50.2730,145.5710,214.5158,0,U,44339,999,37490,.12316E-2,.12721E-3,0
NPSAT1,2019-036B,2026-06-26T14:11:23.934336,14.74653709,.0007036,23.9970,156.5052,318.4425,41.5535,0,U,44340,999,37388,.76504E-3,.5467E-4,0
