AISTECHSAT 2            
1 43768U 18099L   26176.67254980  .00006609  00000+0  35210-3 0  9992
2 43768  97.4292 224.5206 0003012 264.4362  95.6527 15.15527965413566
FOX-1CLIFF (AO-95)      
1 43770U 18099N   26177.71185888  .00011312  00000+0  43041-3 0  9999
2 43770  97.4386 237.9235 0007136 319.9595  40.1117 15.26902666414678
RANGE-A                 
1 43773U 18099R   26177.56667985  .00004281  00000+0  24277-3 0  9995
2 43773  97.3964 219.8713 0008909 322.1269  37.9335 15.13462715413919
SNUSAT-2                
1 43782U 18099AA  26177.40674078  .00008914  00000+0  39328-3 0  9999
2 43782  97.4061 230.6488 0008603 259.8617 100.1648 15.21968787414439
SNUGLITE                
1 43784U 18099AC  26177.57835782  .00011514  00000+0  43213-3 0  9998
2 43784  97.3869 231.7662 0001697 223.4061 136.7045 15.27371411414757
ITASAT                  
1 43786U 18099AE  26177.70458022  .00006883  00000+0  33000-3 0  9999
2 43786  97.4027 229.0263 0011181 324.7706  35.2789 15.19167716414359
EAGLET-I                
1 43790U 18099AJ  26177.57656250  .00003712  00000+0  21367-3 0  9993
2 43790  97.4229 226.9964 0009802 319.5109  40.5392 15.13003874413758
ESEO                    
1 43792U 18099AL  26177.55958844  .00001320  00000+0  98963-4 0  9997
2 43792  97.3975 214.5470 0010261 307.1749  52.8540 15.04276462413213
THEA                    
1 43796U 18099AQ  26177.71872067  .00017578  00000+0  51393-3 0  9998
2 43796  97.4448 247.5048 0006352 241.5381 118.5223 15.35322018414154
ASTROCAST 0.1           
1 43798U 18099AS  26177.68795125  .00037259  00000+0  65998-3 0  9999
2 43798  97.4379 256.4844 0005605 176.1708 183.9587 15.50173201415906
JY1SAT (JO-97)          
1 43803U 18099AX  26177.68609532  .00016394  00000+0  50103-3 0  9991
2 43803  97.4134 240.5542 0005070 220.1283 139.9586 15.33941851415089
SUOMI-100               
1 43804U 18099AY  26177.69872333  .00012236  00000+0  44146-3 0  9995
2 43804  97.4187 238.0570 0008749 239.4504 120.5873 15.28626450414876
CENTAURI-1              
1 43809U 18099BD  26177.57626765  .00005271  00000+0  27386-3 0  9991
2 43809  97.4220 229.0942 0012477 297.8354  62.1615 15.16451035413928
GLOBAL-2                
1 43812U 18099BG  26177.55923624  .00003139  00000+0  20376-3 0  9990
2 43812  97.3557 213.6829 0007592 116.3440 243.8570 15.08725146413320
SEAHAWK-1               
1 43820U 18099BQ  26177.40104575  .00009551  00000+0  40935-3 0  9996
2 43820  97.3965 229.7465 0006510 275.0988  84.9506 15.22948821413938
SAUDISAT 5A             
1 43831U 18102A   26177.72540323  .00005701  00000+0  21014-3 0  9993
2 43831  97.3069 239.1225 0011323 100.1845 260.0672 15.28141248417133
SAUDISAT 5B             
1 43833U 18102C   26177.74265924  .00005341  00000+0  19551-3 0  9991
2 43833  97.3178 242.2264 0012042 102.0222 258.2369 15.28393197417250
ISAT                    
1 43879U 18111D   26177.74653772  .00095453  00000+0  88997-3 0  9996
2 43879  97.5868 113.7138 0003536 166.2174 193.9183 15.67031987412664
UWE-4                   
1 43880U 18111E   26177.72731250  .00032472  00000+0  64980-3 0  9992
2 43880  97.5846 106.5606 0004426 294.0658  66.0127 15.46698886412255
D-STAR ONE (SPARROW)    
1 43881U 18111F   26177.59300338  .00170388  00000+0  10183-2 0  9991
2 43881  97.6096 119.3456 0004903 132.2183 227.9499 15.77369932412852
JILIN-1 09              
1 43943U 19005B   26177.72213392  .00004601  00000+0  21311-3 0  9991
2 43943  97.4744 272.6032 0003575  75.5056 284.6576 15.20592566410598
JILIN-1 10              
1 43946U 19005E   26177.70169058  .00005935  00000+0  23485-3 0  9996
2 43946  97.4791 276.5061 0006878 238.0346 122.0224 15.25818258410763
EGYPTSAT-A (MISRSAT-A)  
1 44047U 19008A   26177.72578994  .00000530  00000+0  91635-4 0  9996
2 44047  98.0194 242.3590 0001468  97.4768 262.6606 14.72317324394645
EMISAT                  
1 44078U 19018A   26177.77816453  .00000329  00000+0  10964-3 0  9992
2 44078  98.4647 236.5263 0018139 185.3844 174.7154 14.43641841381440
JILIN-1 GAOFEN 3A       
1 44312U 19032C   26177.73097479  .00010839  00000+0  34425-3 0  9999
2 44312  44.9760 304.4040 0005941 343.0052  17.0633 15.32834596389306
WT 1B                   
1 44316U 19032G   26177.61822628  .00011059  00000+0  41491-3 0  9998
2 44316  44.9711   9.4563 0010211 296.4737  63.5098 15.27358058388527
PROX-1                  
1 44339U 19036A   26177.76319389  .00012721  00000+0  12316-2 0  9998
2 44339  23.9958  50.2730 0005675 145.5710 214.5158 14.90835013374907
NPSAT1                  
1 44340U 19036B   26177.59124924  .00005467  00000+0  76504-3 0  9999
2 44340  23.9970 156.5052 0007036 318.4425  41.5535 14.74653709373882
